NORAD_CAT_ID,OBJECT_NAME,OBJECT_TYPE,EPOCH,MEAN_MOTION,ECCENTRICITY,INCLINATION,RA_OF_ASC_NODE,ARG_OF_PERICENTER,MEAN_ANOMALY,BSTAR,MEAN_MOTION_DOT,MEAN_MOTION_DDOT,TLE_LINE0,TLE_LINE1,TLE_LINE2,SEMIMAJOR_AXIS,PERIOD,APOGEE,PERIGEE,DECAYED
52638.0,STARLINK-3941,PAYLOAD,2022-07-08 22:00:01,15.56793858,0.0001072,53.2177,167.5099,91.86,244.6853,-0.015955,-0.0105855,0.0,0 STARLINK-3941,1 52638U 22052AS  22189.91668981 -.01058550  00000-0 -15955-1 0  9997,2 52638  53.2177 167.5099 0001072  91.8600 244.6853 15.56793858  1305,6775.08,92.498,397.671,396.219,0.0
52638.0,STARLINK-3941,PAYLOAD,2022-07-09 14:00:01,15.55277054,0.0001143,53.2173,164.3021,91.6212,21.4466,-0.016941,-0.01061806,0.0,0 STARLINK-3941,1 52638U 22052AS  22190.58334491 -.01061806  00000-0 -16941-1 0  9992,2 52638  53.2173 164.3021 0001143  91.6212  21.4466 15.55277054  1302,6779.484,92.588,402.124,400.574,0.0
52638.0,STARLINK-3941,PAYLOAD,2022-07-09 20:00:01,15.54706044,0.0001074,53.2173,163.0995,86.0088,347.3398,-0.017279,-0.01060449,0.0,0 STARLINK-3941,1 52638U 22052AS  22190.83334491 -.01060449  00000-0 -17279-1 0  9997,2 52638  53.2173 163.0995 0001074  86.0088 347.3398 15.54706044  1309,6781.144,92.622,403.73800000000006,402.281,0.0
52638.0,STARLINK-3941,PAYLOAD,2022-07-10 04:00:00,15.53946937,0.0001293,53.2173,161.5009,72.6758,66.9122,-0.017759,-0.01059967,0.0,0 STARLINK-3941,1 52638U 22052AS  22191.16667824 -.01059967  00000-0 -17759-1 0  9999,2 52638  53.2173 161.5009 0001293  72.6758  66.9122 15.53946937  9242,6783.352,92.667,406.095,404.34,0.0
52638.0,STARLINK-3941,PAYLOAD,2022-07-10 14:00:01,15.52999665,0.000111,53.2174,159.5024,101.9493,209.1559,-0.018451,-0.01063355,0.0,0 STARLINK-3941,1 52638U 22052AS  22191.58334491 -.01063355  00000-0 -18451-1 0  9992,2 52638  53.2174 159.5024 0001110 101.9493 209.1559 15.52999665  1306,6786.111,92.724,408.729,407.222,0.0
52638.0,STARLINK-3941,PAYLOAD,2022-07-10 22:00:00,15.52236802,0.0001063,53.2175,157.9053,91.6393,283.6545,-0.018843,-0.01056866,0.0,0 STARLINK-3941,1 52638U 22052AS  22191.91667824 -.01056866  00000-0 -18843-1 0  9992,2 52638  53.2175 157.9053 0001063  91.6393 283.6545 15.52236802  1301,6788.334,92.769,410.92,409.477,0.0
52638.0,STARLINK-3941,PAYLOAD,2022-07-11 14:00:01,15.50615503,0.0001151,53.2174,154.7177,84.15700000000002,56.7919,-0.014299,-0.00767455,0.0,0 STARLINK-3941,1 52638U 22052AS  22192.58334491 -.00767455  00000-0 -14299-1 0  9990,2 52638  53.2174 154.7177 0001151  84.1570  56.7919 15.50615503  1305,6793.065,92.866,415.712,414.148,0.0
52638.0,STARLINK-3941,PAYLOAD,2022-07-11 20:00:01,15.50071188,0.0001134,53.2174,153.5218,84.5167,12.6014,-0.0049107,-0.002715,0.0,0 STARLINK-3941,1 52638U 22052AS  22192.83334491 -.00271500  00000-0 -49107-2 0  9996,2 52638  53.2174 153.5218 0001134  84.5167  12.6014 15.50071188  9507,6794.655,92.899,417.291,415.75,0.0
52638.0,STARLINK-3941,PAYLOAD,2022-07-11 22:00:00,15.49950884,0.0001268,53.2176,153.124,82.116,120.2997,-0.0018501,-0.0010431,0.0,0 STARLINK-3941,1 52638U 22052AS  22192.91667824 -.00104310  00000-0 -18501-2 0  9992,2 52638  53.2176 153.1240 0001268  82.1160 120.2997 15.49950884  1308,6795.007,92.906,417.733,416.01,0.0
52638.0,STARLINK-3941,PAYLOAD,2022-07-12 14:00:01,15.49913402,0.000127,53.2162,149.9281,90.0783,234.1099,-0.00019946,-0.00011766,0.0,0 STARLINK-3941,1 52638U 22052AS  22193.58334491 -.00011766  00000-0 -19946-3 0  9994,2 52638  53.2162 149.9281 0001270  90.0783 234.1099 15.49913402  1306,6795.116,92.908,417.844,416.11800000000005,0.0
52638.0,STARLINK-3941,PAYLOAD,2022-07-12 20:00:01,15.49899896,0.0001283,53.2164,148.7325,97.3813,182.5186,0.00091582,0.00051899,0.0,0 STARLINK-3941,1 52638U 22052AS  22193.83334491  .00051899  00000-0  91582-3 0  9997,2 52638  53.2164 148.7325 0001283  97.3813 182.5186 15.49899896  9651,6795.156,92.909,417.892,416.149,0.0
52638.0,STARLINK-3941,PAYLOAD,2022-07-12 22:00:00,15.4992437,0.0001295,53.2165,148.3348,96.8212,288.3079,0.00028908,0.00016012,0.0,0 STARLINK-3941,1 52638U 22052AS  22193.91667824  .00016012  00000-0  28908-3 0  9995,2 52638  53.2165 148.3348 0001295  96.8212 288.3079 15.49924370  1309,6795.084,92.908,417.829,416.069,0.0
52638.0,STARLINK-3941,PAYLOAD,2022-07-13 12:00:02,15.50062847,0.0001194,53.2164,145.5527,81.7427,320.1145,-0.0066977,-0.00365666,0.0,0 STARLINK-3941,1 52638U 22052AS  22194.50002315 -.00365666  00000-0 -66977-2 0  9990,2 52638  53.2164 145.5527 0001194  81.7427 320.1145 15.50062847  9766,6794.679,92.899,417.356,415.733,0.0
52638.0,STARLINK-3941,PAYLOAD,2022-07-13 14:00:01,15.50078995,0.000127,53.2169,145.1554,89.5685,57.4712,-0.0099009,-0.00529598,0.0,0 STARLINK-3941,1 52638U 22052AS  22194.58334491 -.00529598  00000-0 -99009-2 0  9999,2 52638  53.2169 145.1554 0001270  89.5685  57.4712 15.50078995  1307,6794.632,92.898,417.36,415.634,0.0
52638.0,STARLINK-3941,PAYLOAD,2022-07-13 20:00:01,15.49835366,0.0001229,53.217,143.9637,98.2147,4.5521,-0.011761,-0.00616736,0.0,0 STARLINK-3941,1 52638U 22052AS  22194.83334491 -.00616736  00000-0 -11761-1 0  9996,2 52638  53.2170 143.9637 0001229  98.2147   4.5521 15.49835366  9817,6795.344,92.913,418.044,416.374,0.0
52638.0,STARLINK-3941,PAYLOAD,2022-07-13 22:00:00,15.49842669,0.0001296999999999,53.2171,143.5676,107.922,100.0064,-0.016675,-0.00861706,0.0,0 STARLINK-3941,1 52638U 22052AS  22194.91667824 -.00861706  00000-0 -16675-1 0  9992,2 52638  53.2171 143.5676 0001297 107.9220 100.0064 15.49842669  1306,6795.323,92.913,418.069,416.307,0.0
52638.0,STARLINK-3941,PAYLOAD,2022-07-14 04:00:00,15.4940665,0.0001303,53.2173,142.3789,84.7004,78.6655,-0.020896,-0.01058736,0.0,0 STARLINK-3941,1 52638U 22052AS  22195.16667824 -.01058736  00000-0 -20896-1 0  9992,2 52638  53.2173 142.3789 0001303  84.7004  78.6655 15.49406650  9861,6796.598000000001,92.939,419.348,417.577,0.0
52638.0,STARLINK-3941,PAYLOAD,2022-07-14 14:00:01,15.48458533,0.0001117,53.2175,140.3933,106.5836,221.4803,-0.021664,-0.01061142,0.0,0 STARLINK-3941,1 52638U 22052AS  22195.58334491 -.01061142  00000-0 -21664-1 0  9998,2 52638  53.2175 140.3933 0001117 106.5836 221.4803 15.48458533  1301,6799.371999999999,92.996,421.996,420.477,0.0
52638.0,STARLINK-3941,PAYLOAD,2022-07-14 20:00:01,15.47886246,0.0001233,53.2175,139.2033,101.751,180.448,-0.021979,-0.01055687,0.0,0 STARLINK-3941,1 52638U 22052AS  22195.83334491 -.01055687  00000-0 -21979-1 0  9992,2 52638  53.2175 139.2033 0001233 101.7510 180.4480 15.47886246  9964,6801.0480000000025,93.03,423.751,422.074,0.0
52638.0,STARLINK-3941,PAYLOAD,2022-07-14 22:00:00,15.47697973,0.0001079,53.2175,138.8079,95.0345,291.7608,-0.02219,-0.0105848,0.0,0 STARLINK-3941,1 52638U 22052AS  22195.91667824 -.01058480  00000-0 -22190-1 0  9990,2 52638  53.2175 138.8079 0001079  95.0345 291.7608 15.47697973  1303,6801.599,93.041,424.198,422.73,0.0
52638.0,STARLINK-3941,PAYLOAD,2022-07-15 12:00:00,15.4636862,0.0001067,53.2175,136.0384,98.2089,299.1699,-0.023237,-0.01058197,0.0,0 STARLINK-3941,1 52638U 22052AS  22196.50001157 -.01058197  00000-0 -23237-1 0  9995,2 52638  53.2175 136.0384 0001067  98.2089 299.1699 15.46368620 10078,6805.496999999999,93.121,428.088,426.635,0.0
52638.0,STARLINK-3941,PAYLOAD,2022-07-15 14:00:01,15.46177744,0.0001230999999999,53.2177,135.6426,96.5002,45.0202,-0.023345,-0.01056328,0.0,0 STARLINK-3941,1 52638U 22052AS  22196.58334491 -.01056328  00000-0 -23345-1 0  9997,2 52638  53.2177 135.6426 0001231  96.5002  45.0202 15.46177744  1300,6806.057,93.133,428.76,427.084,0.0
52638.0,STARLINK-3941,PAYLOAD,2022-07-15 22:00:00,15.45417708,0.0001315,53.2178,134.063,85.1795,112.3341,-0.023939,-0.0105523,0.0,0 STARLINK-3941,1 52638U 22052AS  22196.91667824 -.01055230  00000-0 -23939-1 0  9993,2 52638  53.2178 134.0630 0001315  85.1795 112.3341 15.45417708  1305,6808.288000000001,93.179,431.048,429.258,0.0
52638.0,STARLINK-3941,PAYLOAD,2022-07-16 04:00:00,15.44849475,0.0001302,53.2177,132.8806,87.7416,61.1666,-0.024461,-0.01057151,0.0,0 STARLINK-3941,1 52638U 22052AS  22197.16667824 -.01057151  00000-0 -24461-1 0  9996,2 52638  53.2177 132.8806 0001302  87.7416  61.1666 15.44849475 10174,6809.956999999999,93.213,432.709,430.936,0.0
52638.0,STARLINK-3941,PAYLOAD,2022-07-16 14:00:01,15.43900142,0.0001139,53.2176,130.9084,96.7357,210.0262,-0.025283,-0.01057627,0.0,0 STARLINK-3941,1 52638U 22052AS  22197.58334491 -.01057627  00000-0 -25283-1 0  9994,2 52638  53.2176 130.9084 0001139  96.7357 210.0262 15.43900142  1302,6812.749,93.27,435.39,433.838,0.0
52638.0,STARLINK-3941,PAYLOAD,2022-07-16 20:00:01,15.43329745,0.0001284999999999,53.2177,129.7271,96.8866,159.9022,-0.025708,-0.01055013,0.0,0 STARLINK-3941,1 52638U 22052AS  22197.83334491 -.01055013  00000-0 -25708-1 0  9991,2 52638  53.2177 129.7271 0001285  96.8866 159.9022 15.43329745 10270,6814.427,93.305,437.168,435.417,0.0
52638.0,STARLINK-3941,PAYLOAD,2022-07-16 22:00:00,15.43141081,0.0001087,53.2179,129.3343,83.1759,276.8406,-0.025949,-0.01072601,0.0,0 STARLINK-3941,1 52638U 22052AS  22197.91667824 -.01072601  00000-0 -25949-1 0  9998,2 52638  53.2179 129.3343 0001087  83.1759 276.8406 15.43141081  1313,6814.983,93.316,437.588,436.107,0.0
52638.0,STARLINK-3941,PAYLOAD,2022-07-17 12:00:00,15.41811743,0.0001077,53.2175,126.5834,98.4005,262.617,-0.027141,-0.01072628,0.0,0 STARLINK-3941,1 52638U 22052AS  22198.50001157 -.01072628  00000-0 -27141-1 0  9990,2 52638  53.2175 126.5834 0001077  98.4005 262.6170 15.41811743 10380,6818.899,93.397,441.499,440.03,0.0
52638.0,STARLINK-3941,PAYLOAD,2022-07-17 14:00:01,15.4161929,0.0001154,53.2175,126.1904,92.0115,11.779000000000002,-0.02719,-0.01068054,0.0,0 STARLINK-3941,1 52638U 22052AS  22198.58334491 -.01068054  00000-0 -27190-1 0  9990,2 52638  53.2175 126.1904 0001154  92.0115  11.7790 15.41619290  1308,6819.467,93.408,442.119,440.545,0.0
